{
  "norad_id": 58073,
  "name": "YUNHAI-1 04",
  "history": [
    {
      "epoch": "2026-03-28T23:27:51.940800Z",
      "apogee_km": 784.443205545922,
      "perigee_km": 781.1656426561103,
      "latitude_deg": 4.692705568881385e-05,
      "longitude_deg": -63.127312753793696,
      "height_km": 785.6160303384446,
      "semi_major_axis_km": 7160.941424101015,
      "eccentricity": 0.00022885,
      "inclination_deg": 98.5062,
      "raan_deg": 115.2295,
      "arg_perigee_deg": 85.7001,
      "mean_anomaly_deg": 274.4445,
      "mean_motion_rev_day": 14.32674662
    },
    {
      "epoch": "2026-03-29T04:29:34.358208Z",
      "apogee_km": 784.4430769802248,
      "perigee_km": 781.1647982189925,
      "latitude_deg": -4.783300537659163e-05,
      "longitude_deg": -138.5549488442607,
      "height_km": 785.6072429950941,
      "semi_major_axis_km": 7160.940937599608,
      "eccentricity": 0.0002289,
      "inclination_deg": 98.5061,
      "raan_deg": 115.4351,
      "arg_perigee_deg": 85.4094,
      "mean_anomaly_deg": 274.7351,
      "mean_motion_rev_day": 14.32674808
    },
    {
      "epoch": "2026-03-30T05:38:06.395136Z",
      "apogee_km": 784.4177550875447,
      "perigee_km": 781.1838755701419,
      "latitude_deg": -3.655176446758856e-05,
      "longitude_deg": -155.6925918359997,
      "height_km": 785.5677460707934,
      "semi_major_axis_km": 7160.9378153288435,
      "eccentricity": 0.0002258,
      "inclination_deg": 98.5059,
      "raan_deg": 116.4635,
      "arg_perigee_deg": 84.0495,
      "mean_anomaly_deg": 276.0946,
      "mean_motion_rev_day": 14.32675745
    },
    {
      "epoch": "2026-03-30T07:18:40.529664Z",
      "apogee_km": 784.4179764834853,
      "perigee_km": 781.1833809340114,
      "latitude_deg": 6.0414899926242366e-05,
      "longitude_deg": 179.1649296478291,
      "height_km": 785.5657146702193,
      "semi_major_axis_km": 7160.937678708748,
      "eccentricity": 0.00022585,
      "inclination_deg": 98.5059,
      "raan_deg": 116.5321,
      "arg_perigee_deg": 83.9839,
      "mean_anomaly_deg": 276.1603,
      "mean_motion_rev_day": 14.32675786
    },
    {
      "epoch": "2026-03-30T14:00:57.064320Z",
      "apogee_km": 784.4175810875959,
      "perigee_km": 781.1816970391365,
      "latitude_deg": 7.192619953303039e-05,
      "longitude_deg": 78.59498600945024,
      "height_km": 785.5522905363438,
      "semi_major_axis_km": 7160.936639063366,
      "eccentricity": 0.00022594,
      "inclination_deg": 98.5059,
      "raan_deg": 116.8064,
      "arg_perigee_deg": 83.5452,
      "mean_anomaly_deg": 276.599,
      "mean_motion_rev_day": 14.32676098
    },
    {
      "epoch": "2026-03-30T22:23:47.724864Z",
      "apogee_km": 784.4159600494922,
      "perigee_km": 781.1813654106372,
      "latitude_deg": 1.1815867177410518e-05,
      "longitude_deg": -47.11747496719987,
      "height_km": 785.5360493616477,
      "semi_major_axis_km": 7160.935662730064,
      "eccentricity": 0.00022585,
      "inclination_deg": 98.5058,
      "raan_deg": 117.1492,
      "arg_perigee_deg": 82.9975,
      "mean_anomaly_deg": 277.1466,
      "mean_motion_rev_day": 14.32676391
    },
    {
      "epoch": "2026-03-31T20:11:11.431392Z",
      "apogee_km": 784.4061013412584,
      "perigee_km": 781.1865457189988,
      "latitude_deg": 5.6549525339304984e-06,
      "longitude_deg": -13.969930146460904,
      "height_km": 785.5002808679874,
      "semi_major_axis_km": 7160.933323530128,
      "eccentricity": 0.0002248,
      "inclination_deg": 98.5057,
      "raan_deg": 118.0404,
      "arg_perigee_deg": 81.7631,
      "mean_anomaly_deg": 278.3808,
      "mean_motion_rev_day": 14.32677093
    },
    {
      "epoch": "2026-04-01T21:19:43.345632Z",
      "apogee_km": 784.3975367532548,
      "perigee_km": 781.1908717599881,
      "latitude_deg": 6.604632961395973e-06,
      "longitude_deg": -31.107058367033638,
      "height_km": 785.4602393917039,
      "semi_major_axis_km": 7160.931204256622,
      "eccentricity": 0.0002239,
      "inclination_deg": 98.5061,
      "raan_deg": 119.0688,
      "arg_perigee_deg": 80.3574,
      "mean_anomaly_deg": 279.7863,
      "mean_motion_rev_day": 14.32677729
    },
    {
      "epoch": "2026-04-02T20:47:41.066592Z",
      "apogee_km": 784.3823002089657,
      "perigee_km": 781.199983742672,
      "latitude_deg": -1.3621987576282597e-06,
      "longitude_deg": -23.101576195476827,
      "height_km": 785.424992425179,
      "semi_major_axis_km": 7160.928141975818,
      "eccentricity": 0.0002222,
      "inclination_deg": 98.5053,
      "raan_deg": 120.0285,
      "arg_perigee_deg": 79.1025,
      "mean_anomaly_deg": 281.0409,
      "mean_motion_rev_day": 14.32678648
    },
    {
      "epoch": "2026-04-03T00:08:49.301952Z",
      "apogee_km": 784.3759033609949,
      "perigee_km": 781.205474236056,
      "latitude_deg": 6.574833778838052e-06,
      "longitude_deg": -73.38636484303522,
      "height_km": 785.421014556933,
      "semi_major_axis_km": 7160.927688798525,
      "eccentricity": 0.00022137,
      "inclination_deg": 98.5053,
      "raan_deg": 120.1657,
      "arg_perigee_deg": 78.9308,
      "mean_anomaly_deg": 281.2125,
      "mean_motion_rev_day": 14.32678784
    },
    {
      "epoch": "2026-04-03T20:15:38.713248Z",
      "apogee_km": 784.3718220536921,
      "perigee_km": 781.2009651749995,
      "latitude_deg": -2.7501530173209836e-06,
      "longitude_deg": -15.095685267361157,
      "height_km": 785.3882511687436,
      "semi_major_axis_km": 7160.9233936143455,
      "eccentricity": 0.0002214,
      "inclination_deg": 98.5051,
      "raan_deg": 120.9883,
      "arg_perigee_deg": 77.8814,
      "mean_anomaly_deg": 282.2618,
      "mean_motion_rev_day": 14.32680073
    },
    {
      "epoch": "2026-04-04T19:43:36.326208Z",
      "apogee_km": 784.3568126600348,
      "perigee_km": 781.21173603634,
      "latitude_deg": 3.777012132798211e-05,
      "longitude_deg": -7.08976061122486,
      "height_km": 785.3509461794779,
      "semi_major_axis_km": 7160.921274348187,
      "eccentricity": 0.0002196,
      "inclination_deg": 98.505,
      "raan_deg": 121.948,
      "arg_perigee_deg": 76.4638,
      "mean_anomaly_deg": 283.6791,
      "mean_motion_rev_day": 14.32680709
    },
    {
      "epoch": "2026-04-05T14:09:51.556320Z",
      "apogee_km": 784.3367095057001,
      "perigee_km": 781.229013504204,
      "latitude_deg": 3.271519673107862e-05,
      "longitude_deg": 76.34377626989465,
      "height_km": 785.3280709617113,
      "semi_major_axis_km": 7160.919861504952,
      "eccentricity": 0.00021699,
      "inclination_deg": 98.5056,
      "raan_deg": 122.7022,
      "arg_perigee_deg": 75.4803,
      "mean_anomaly_deg": 284.6622,
      "mean_motion_rev_day": 14.32681133
    },
    {
      "epoch": "2026-04-05T20:52:07.996800Z",
      "apogee_km": 784.330019181115,
      "perigee_km": 781.2336378796572,
      "latitude_deg": -1.0922492362332693e-05,
      "longitude_deg": -24.225966513588233,
      "height_km": 785.3123947866817,
      "semi_major_axis_km": 7160.918828530385,
      "eccentricity": 0.0002162,
      "inclination_deg": 98.5055,
      "raan_deg": 122.9763,
      "arg_perigee_deg": 74.8642,
      "mean_anomaly_deg": 285.2781,
      "mean_motion_rev_day": 14.32681443
    },
    {
      "epoch": "2026-04-06T06:55:32.645856Z",
      "apogee_km": 784.3177202042052,
      "perigee_km": 781.2443973917307,
      "latitude_deg": 9.818456044599123e-06,
      "longitude_deg": -175.08029497721964,
      "height_km": 785.3049546049403,
      "semi_major_axis_km": 7160.918058797968,
      "eccentricity": 0.00021459,
      "inclination_deg": 98.5056,
      "raan_deg": 123.3877,
      "arg_perigee_deg": 74.4889,
      "mean_anomaly_deg": 285.6532,
      "mean_motion_rev_day": 14.32681674
    },
    {
      "epoch": "2026-04-07T14:46:20.671392Z",
      "apogee_km": 784.2985600763232,
      "perigee_km": 781.2570331256147,
      "latitude_deg": -9.295983737152393e-06,
      "longitude_deg": 67.21420147884115,
      "height_km": 785.2564708027287,
      "semi_major_axis_km": 7160.914796600969,
      "eccentricity": 0.00021237,
      "inclination_deg": 98.5054,
      "raan_deg": 124.6902,
      "arg_perigee_deg": 72.542,
      "mean_anomaly_deg": 287.5996,
      "mean_motion_rev_day": 14.32682653
    },
    {
      "epoch": "2026-04-07T19:48:02.990304Z",
      "apogee_km": 784.2961266977482,
      "perigee_km": 781.2584668530562,
      "latitude_deg": -3.789618223103582e-05,
      "longitude_deg": -8.21293363140213,
      "height_km": 785.2483868918573,
      "semi_major_axis_km": 7160.914296775402,
      "eccentricity": 0.0002121,
      "inclination_deg": 98.5054,
      "raan_deg": 124.8959,
      "arg_perigee_deg": 72.2183,
      "mean_anomaly_deg": 287.9232,
      "mean_motion_rev_day": 14.32682803
    },
    {
      "epoch": "2026-04-08T14:14:18.112416Z",
      "apogee_km": 784.2770459106259,
      "perigee_km": 781.2741888136597,
      "latitude_deg": -5.763256410492973e-05,
      "longitude_deg": 75.22095554725122,
      "height_km": 785.230316665938,
      "semi_major_axis_km": 7160.912617362143,
      "eccentricity": 0.00020967,
      "inclination_deg": 98.5053,
      "raan_deg": 125.65,
      "arg_perigee_deg": 71.3438,
      "mean_anomaly_deg": 288.7973,
      "mean_motion_rev_day": 14.32683307
    },
    {
      "epoch": "2026-04-09T20:24:31.904928Z",
      "apogee_km": 784.2613277214923,
      "perigee_km": 781.2823896362816,
      "latitude_deg": -3.891720124029281e-05,
      "longitude_deg": -17.341678088308516,
      "height_km": 785.1886802384295,
      "semi_major_axis_km": 7160.908858678887,
      "eccentricity": 0.000208,
      "inclination_deg": 98.5044,
      "raan_deg": 126.8839,
      "arg_perigee_deg": 69.6384,
      "mean_anomaly_deg": 290.5023,
      "mean_motion_rev_day": 14.32684435
    }
  ]
}